[{"OBJECT_NAME":"STARLINK-2587","OBJECT_ID":"2021-038AY","EPOCH":"2025-10-14T06:05:27.216672","MEAN_MOTION":15.06447239,"ECCENTRICITY":0.00014965,"INCLINATION":53.0549,"RA_OF_ASC_NODE":278.992,"ARG_OF_PERICENTER":103.9187,"MEAN_ANOMALY":256.1969,"EPHEMERIS_TYPE":0,"CLASSIFICATION_TYPE":"U","NORAD_CAT_ID":48399,"ELEMENT_SET_NO":999,"REV_AT_EPOCH":24644,"BSTAR":0.00052351173,"MEAN_MOTION_DOT":7.535e-5,"MEAN_MOTION_DDOT":0},{"OBJECT_NAME":"STARLINK-2576","OBJECT_ID":"2021-038AZ","EPOCH":"2025-10-14T06:00:12.187584","MEAN_MOTION":15.06400359,"ECCENTRICITY":0.00014311,"INCLINATION":53.0539,"RA_OF_ASC_NODE":279.0102,"ARG_OF_PERICENTER":95.7115,"MEAN_ANOMALY":264.4038,"EPHEMERIS_TYPE":0,"CLASSIFICATION_TYPE":"U","NORAD_CAT_ID":48400,"ELEMENT_SET_NO":999,"REV_AT_EPOCH":24523,"BSTAR":0.00012960815,"MEAN_MOTION_DOT":1.65e-5,"MEAN_MOTION_DDOT":0},{"OBJECT_NAME":"STARLINK-2571","OBJECT_ID":"2021-038BA","EPOCH":"2025-10-14T06:53:16.009440","MEAN_MOTION":15.06414185,"ECCENTRICITY":0.0001468,"INCLINATION":53.0541,"RA_OF_ASC_NODE":278.8553,"ARG_OF_PERICENTER":94.4616,"MEAN_ANOMALY":265.6541,"EPHEMERIS_TYPE":0,"CLASSIFICATION_TYPE":"U","NORAD_CAT_ID":48401,"ELEMENT_SET_NO":999,"REV_AT_EPOCH":24523,"BSTAR":0.00034981665,"MEAN_MOTION_DOT":4.935e-5,"MEAN_MOTION_DDOT":0},{"OBJECT_NAME":"STARLINK-2593","OBJECT_ID":"2021-038BD","EPOCH":"2025-10-14T07:19:49.056096","MEAN_MOTION":15.06407535,"ECCENTRICITY":0.00014318,"INCLINATION":53.0549,"RA_OF_ASC_NODE":278.7614,"ARG_OF_PERICENTER":86.1823,"MEAN_ANOMALY":273.933,"EPHEMERIS_TYPE":0,"CLASSIFICATION_TYPE":"U","NORAD_CAT_ID":48404,"ELEMENT_SET_NO":999,"REV_AT_EPOCH":24524,"BSTAR":0.00012389513,"MEAN_MOTION_DOT":1.565e-5,"MEAN_MOTION_DDOT":0},{"OBJECT_NAME":"STARLINK-2570","OBJECT_ID":"2021-038BE","EPOCH":"2025-10-14T07:14:30.687648","MEAN_MOTION":15.0640264,"ECCENTRICITY":0.00015231,"INCLINATION":53.0556,"RA_OF_ASC_NODE":278.7784,"ARG_OF_PERICENTER":87.0052,"MEAN_ANOMALY":273.1111,"EPHEMERIS_TYPE":0,"CLASSIFICATION_TYPE":"U","NORAD_CAT_ID":48405,"ELEMENT_SET_NO":999,"REV_AT_EPOCH":24524,"BSTAR":2.7791579e-5,"MEAN_MOTION_DOT":1.32e-6,"MEAN_MOTION_DDOT":0},{"OBJECT_NAME":"STARLINK-2568","OBJECT_ID":"2021-038BF","EPOCH":"2025-10-14T07:09:11.656512","MEAN_MOTION":15.06409202,"ECCENTRICITY":0.00013648,"INCLINATION":53.0543,"RA_OF_ASC_NODE":278.7971,"ARG_OF_PERICENTER":93.7833,"MEAN_ANOMALY":266.3312,"EPHEMERIS_TYPE":0,"CLASSIFICATION_TYPE":"U","NORAD_CAT_ID":48406,"ELEMENT_SET_NO":999,"REV_AT_EPOCH":24524,"BSTAR":7.3162782e-5,"MEAN_MOTION_DOT":8.09e-6,"MEAN_MOTION_DDOT":0},{"OBJECT_NAME":"STARLINK-2595","OBJECT_ID":"2021-038BG","EPOCH":"2025-10-14T02:04:17.815584","MEAN_MOTION":15.56276086,"ECCENTRICITY":0.00047249,"INCLINATION":53.0398,"RA_OF_ASC_NODE":215.454,"ARG_OF_PERICENTER":119.3454,"MEAN_ANOMALY":240.8029,"EPHEMERIS_TYPE":0,"CLASSIFICATION_TYPE":"U","NORAD_CAT_ID":48407,"ELEMENT_SET_NO":999,"REV_AT_EPOCH":24611,"BSTAR":0.0015888915,"MEAN_MOTION_DOT":0.00114881,"MEAN_MOTION_DDOT":0},{"OBJECT_NAME":"STARLINK-2592","OBJECT_ID":"2021-038BH","EPOCH":"2025-10-14T06:58:35.473440","MEAN_MOTION":15.06408167,"ECCENTRICITY":0.0001416,"INCLINATION":53.0552,"RA_OF_ASC_NODE":278.8291,"ARG_OF_PERICENTER":80.6632,"MEAN_ANOMALY":279.4517,"EPHEMERIS_TYPE":0,"CLASSIFICATION_TYPE":"U","NORAD_CAT_ID":48408,"ELEMENT_SET_NO":999,"REV_AT_EPOCH":24523,"BSTAR":4.6794337e-5,"MEAN_MOTION_DOT":4.16e-6,"MEAN_MOTION_DDOT":0},{"OBJECT_NAME":"STARLINK-2563","OBJECT_ID":"2021-038BK","EPOCH":"2025-10-14T06:03:30.285504","MEAN_MOTION":15.06419239,"ECCENTRICITY":0.00016359,"INCLINATION":53.0558,"RA_OF_ASC_NODE":234.0022,"ARG_OF_PERICENTER":85.6221,"MEAN_ANOMALY":274.4955,"EPHEMERIS_TYPE":0,"CLASSIFICATION_TYPE":"U","NORAD_CAT_ID":48410,"ELEMENT_SET_NO":999,"REV_AT_EPOCH":24587,"BSTAR":0.00018240825,"MEAN_MOTION_DOT":2.438e-5,"MEAN_MOTION_DDOT":0},{"OBJECT_NAME":"STARLINK-2505","OBJECT_ID":"2021-038BL","EPOCH":"2025-10-14T06:28:04.643616","MEAN_MOTION":15.06400029,"ECCENTRICITY":0.00015525,"INCLINATION":53.0545,"RA_OF_ASC_NODE":228.9206,"ARG_OF_PERICENTER":79.5193,"MEAN_ANOMALY":280.5971,"EPHEMERIS_TYPE":0,"CLASSIFICATION_TYPE":"U","NORAD_CAT_ID":48411,"ELEMENT_SET_NO":999,"REV_AT_EPOCH":24594,"BSTAR":-0.00023013244,"MEAN_MOTION_DOT":-3.708e-5,"MEAN_MOTION_DDOT":0},{"OBJECT_NAME":"STARLINK-2581","OBJECT_ID":"2021-038BM","EPOCH":"2025-10-14T05:19:07.895424","MEAN_MOTION":15.06419424,"ECCENTRICITY":0.00016846,"INCLINATION":53.0538,"RA_OF_ASC_NODE":229.578,"ARG_OF_PERICENTER":113.6754,"MEAN_ANOMALY":246.4412,"EPHEMERIS_TYPE":0,"CLASSIFICATION_TYPE":"U","NORAD_CAT_ID":48412,"ELEMENT_SET_NO":999,"REV_AT_EPOCH":24593,"BSTAR":0.00097948542,"MEAN_MOTION_DOT":0.00014346,"MEAN_MOTION_DDOT":0},{"OBJECT_NAME":"STARLINK-2461","OBJECT_ID":"2021-040A","EPOCH":"2025-10-14T00:43:43.001184","MEAN_MOTION":15.06408503,"ECCENTRICITY":0.00014226,"INCLINATION":53.0534,"RA_OF_ASC_NODE":124.9966,"ARG_OF_PERICENTER":88.0124,"MEAN_ANOMALY":272.1028,"EPHEMERIS_TYPE":0,"CLASSIFICATION_TYPE":"U","NORAD_CAT_ID":48428,"ELEMENT_SET_NO":999,"REV_AT_EPOCH":24445,"BSTAR":7.6821249e-5,"MEAN_MOTION_DOT":8.63e-6,"MEAN_MOTION_DDOT":0},{"OBJECT_NAME":"STARLINK-2700","OBJECT_ID":"2021-040D","EPOCH":"2025-10-14T04:16:41.129184","MEAN_MOTION":15.06390442,"ECCENTRICITY":0.00015675,"INCLINATION":53.0541,"RA_OF_ASC_NODE":89.3328,"ARG_OF_PERICENTER":85.75,"MEAN_ANOMALY":274.3668,"EPHEMERIS_TYPE":0,"CLASSIFICATION_TYPE":"U","NORAD_CAT_ID":48431,"ELEMENT_SET_NO":999,"REV_AT_EPOCH":24496,"BSTAR":0.00011345244,"MEAN_MOTION_DOT":1.408e-5,"MEAN_MOTION_DDOT":0},{"OBJECT_NAME":"STARLINK-2680","OBJECT_ID":"2021-040E","EPOCH":"2025-10-14T03:49:33.627072","MEAN_MOTION":15.06391259,"ECCENTRICITY":0.00012613,"INCLINATION":53.053,"RA_OF_ASC_NODE":84.8133,"ARG_OF_PERICENTER":96.3184,"MEAN_ANOMALY":263.7949,"EPHEMERIS_TYPE":0,"CLASSIFICATION_TYPE":"U","NORAD_CAT_ID":48432,"ELEMENT_SET_NO":999,"REV_AT_EPOCH":24502,"BSTAR":0.00019729492,"MEAN_MOTION_DOT":2.658e-5,"MEAN_MOTION_DDOT":0},{"OBJECT_NAME":"STARLINK-2699","OBJECT_ID":"2021-040F","EPOCH":"2025-10-14T04:07:27.793344","MEAN_MOTION":15.06398248,"ECCENTRICITY":0.00012406,"INCLINATION":53.0541,"RA_OF_ASC_NODE":89.6415,"ARG_OF_PERICENTER":90.9816,"MEAN_ANOMALY":269.1315,"EPHEMERIS_TYPE":0,"CLASSIFICATION_TYPE":"U","NORAD_CAT_ID":48433,"ELEMENT_SET_NO":999,"REV_AT_EPOCH":24495,"BSTAR":4.1322999e-5,"MEAN_MOTION_DOT":3.34e-6,"MEAN_MOTION_DDOT":0},{"OBJECT_NAME":"STARLINK-2692","OBJECT_ID":"2021-040G","EPOCH":"2025-10-14T04:51:57.529152","MEAN_MOTION":15.06396002,"ECCENTRICITY":0.00011856,"INCLINATION":53.0527,"RA_OF_ASC_NODE":94.7346,"ARG_OF_PERICENTER":93.6705,"MEAN_ANOMALY":266.442,"EPHEMERIS_TYPE":0,"CLASSIFICATION_TYPE":"U","NORAD_CAT_ID":48434,"ELEMENT_SET_NO":999,"REV_AT_EPOCH":24489,"BSTAR":-7.704717e-6,"MEAN_MOTION_DOT":-3.96e-6,"MEAN_MOTION_DDOT":0},{"OBJECT_NAME":"STARLINK-2633","OBJECT_ID":"2021-040H","EPOCH":"2025-10-14T00:14:31.937568","MEAN_MOTION":15.06398967,"ECCENTRICITY":0.00012674,"INCLINATION":53.0532,"RA_OF_ASC_NODE":105.0975,"ARG_OF_PERICENTER":82.7054,"MEAN_ANOMALY":277.4079,"EPHEMERIS_TYPE":0,"CLASSIFICATION_TYPE":"U","NORAD_CAT_ID":48435,"ELEMENT_SET_NO":999,"REV_AT_EPOCH":24472,"BSTAR":0.00025172858,"MEAN_MOTION_DOT":3.47e-5,"MEAN_MOTION_DDOT":0},{"OBJECT_NAME":"STARLINK-2639","OBJECT_ID":"2021-040J","EPOCH":"2025-10-14T06:21:25.898976","MEAN_MOTION":15.0639792,"ECCENTRICITY":0.00013329,"INCLINATION":53.0529,"RA_OF_ASC_NODE":118.9433,"ARG_OF_PERICENTER":85.0675,"MEAN_ANOMALY":275.0466,"EPHEMERIS_TYPE":0,"CLASSIFICATION_TYPE":"U","NORAD_CAT_ID":48436,"ELEMENT_SET_NO":999,"REV_AT_EPOCH":24455,"BSTAR":-3.461895e-6,"MEAN_MOTION_DOT":-3.33e-6,"MEAN_MOTION_DDOT":0},{"OBJECT_NAME":"STARLINK-2642","OBJECT_ID":"2021-040K","EPOCH":"2025-10-14T01:12:15.057792","MEAN_MOTION":15.06403963,"ECCENTRICITY":0.0001289,"INCLINATION":53.0528,"RA_OF_ASC_NODE":129.909,"ARG_OF_PERICENTER":86.0041,"MEAN_ANOMALY":274.1096,"EPHEMERIS_TYPE":0,"CLASSIFICATION_TYPE":"U","NORAD_CAT_ID":48437,"ELEMENT_SET_NO":999,"REV_AT_EPOCH":24438,"BSTAR":0.0003066983,"MEAN_MOTION_DOT":4.29e-5,"MEAN_MOTION_DDOT":0},{"OBJECT_NAME":"STARLINK-2640","OBJECT_ID":"2021-040L","EPOCH":"2025-10-14T00:31:09.723648","MEAN_MOTION":15.06406588,"ECCENTRICITY":0.00014624,"INCLINATION":53.0533,"RA_OF_ASC_NODE":120.3024,"ARG_OF_PERICENTER":99.129,"MEAN_ANOMALY":260.9864,"EPHEMERIS_TYPE":0,"CLASSIFICATION_TYPE":"U","NORAD_CAT_ID":48438,"ELEMENT_SET_NO":999,"REV_AT_EPOCH":24451,"BSTAR":0.00013862823,"MEAN_MOTION_DOT":1.784e-5,"MEAN_MOTION_DDOT":0},{"OBJECT_NAME":"STARLINK-2583","OBJECT_ID":"2021-040M","EPOCH":"2025-10-14T06:10:48.940032","MEAN_MOTION":15.06394627,"ECCENTRICITY":0.00012655,"INCLINATION":53.0529,"RA_OF_ASC_NODE":118.9788,"ARG_OF_PERICENTER":88.2957,"MEAN_ANOMALY":271.8177,"EPHEMERIS_TYPE":0,"CLASSIFICATION_TYPE":"U","NORAD_CAT_ID":48439,"ELEMENT_SET_NO":999,"REV_AT_EPOCH":24455,"BSTAR":-8.9991779e-5,"MEAN_MOTION_DOT":-1.621e-5,"MEAN_MOTION_DDOT":0},{"OBJECT_NAME":"STARLINK-2682","OBJECT_ID":"2021-040N","EPOCH":"2025-10-14T06:05:30.863616","MEAN_MOTION":15.06389857,"ECCENTRICITY":0.00013614,"INCLINATION":53.0523,"RA_OF_ASC_NODE":118.9942,"ARG_OF_PERICENTER":91.0817,"MEAN_ANOMALY":269.0328,"EPHEMERIS_TYPE":0,"CLASSIFICATION_TYPE":"U","NORAD_CAT_ID":48440,"ELEMENT_SET_NO":999,"REV_AT_EPOCH":24455,"BSTAR":0.0001788965,"MEAN_MOTION_DOT":2.383e-5,"MEAN_MOTION_DDOT":0},{"OBJECT_NAME":"STARLINK-2702","OBJECT_ID":"2021-040P","EPOCH":"2025-10-14T01:13:33.980736","MEAN_MOTION":15.0640669,"ECCENTRICITY":0.00015178,"INCLINATION":53.052,"RA_OF_ASC_NODE":119.9043,"ARG_OF_PERICENTER":96.7138,"MEAN_ANOMALY":263.4024,"EPHEMERIS_TYPE":0,"CLASSIFICATION_TYPE":"U","NORAD_CAT_ID":48441,"ELEMENT_SET_NO":999,"REV_AT_EPOCH":24452,"BSTAR":0.00017217544,"MEAN_MOTION_DOT":2.284e-5,"MEAN_MOTION_DDOT":0}]
